start=new Date('2022-01-31T00:00:00.000Z').valueOf();
sats=[{"COUNTRY_CODE":"US","TLE_LINE2":"2 46546  53.0536  65.3226 0001649  65.8186 294.2976 15.06411368 73584","REV_AT_EPOCH":"7358","BSTAR":"0.00047146000000","ECCENTRICITY":"0.00016490","ELEMENT_SET_NO":"999","MEAN_ELEMENT_THEORY":"SGP4","SEMIMAJOR_AXIS":"6925.314","NORAD_CAT_ID":"46546","EPOCH":"2022-01-30T19:33:33.059808","INCLINATION":"53.0536","RA_OF_ASC_NODE":"65.3226","DECAY_DATE":null,"APOAPSIS":"548.321","EPHEMERIS_TYPE":"0","ARG_OF_PERICENTER":"65.8186","TIME_SYSTEM":"UTC","GP_ID":"194982794","SITE":"AFETR","MEAN_MOTION_DOT":"0.00006750","PERIAPSIS":"546.037","MEAN_MOTION":"15.06411368","REF_FRAME":"TEME","OBJECT_TYPE":"PAYLOAD","CENTER_NAME":"EARTH","RCS_SIZE":"LARGE","MEAN_ANOMALY":"294.2976","OBJECT_ID":"2020-070Q","FILE":"3287903","OBJECT_NAME":"STARLINK-1697","PERIOD":"95.591","TLE_LINE1":"1 46546U 20070Q   22030.81496597  .00006750  00000-0  47146-3 0  9993","LAUNCH_DATE":"2020-10-06","CLASSIFICATION_TYPE":"U","MEAN_MOTION_DDOT":"0.0000000000000"},{"LAUNCH_DATE":"2020-10-06","MEAN_MOTION_DDOT":"0.0000000000000","CLASSIFICATION_TYPE":"U","REF_FRAME":"TEME","CENTER_NAME":"EARTH","OBJECT_TYPE":"PAYLOAD","PERIAPSIS":"545.995","MEAN_MOTION":"15.06400027","OBJECT_NAME":"STARLINK-1698","FILE":"3287903","TLE_LINE1":"1 46547U 20070R   22030.57906678  .00004892  00000-0  34706-3 0  9996","PERIOD":"95.592","OBJECT_ID":"2020-070R","MEAN_ANOMALY":"296.9599","RCS_SIZE":"LARGE","DECAY_DATE":null,"TIME_SYSTEM":"UTC","APOAPSIS":"548.432","EPHEMERIS_TYPE":"0","ARG_OF_PERICENTER":"63.1569","INCLINATION":"53.0539","RA_OF_ASC_NODE":"66.3871","MEAN_MOTION_DOT":"0.00004892","GP_ID":"194983546","SITE":"AFETR","REV_AT_EPOCH":"7355","TLE_LINE2":"2 46547  53.0539  66.3871 0001759  63.1569 296.9599 15.06400027 73550","COUNTRY_CODE":"US","EPOCH":"2022-01-30T13:53:51.369792","NORAD_CAT_ID":"46547","SEMIMAJOR_AXIS":"6925.348","MEAN_ELEMENT_THEORY":"SGP4","ECCENTRICITY":"0.00017590","BSTAR":"0.00034706000000","ELEMENT_SET_NO":"999"},{"DECAY_DATE":null,"TIME_SYSTEM":"UTC","ARG_OF_PERICENTER":"79.2305","APOAPSIS":"548.054","EPHEMERIS_TYPE":"0","RA_OF_ASC_NODE":"65.4517","INCLINATION":"53.0544","MEAN_MOTION_DOT":"0.00001787","GP_ID":"194983297","SITE":"AFETR","REV_AT_EPOCH":"7358","TLE_LINE2":"2 46548  53.0544  65.4517 0001236  79.2305 280.8823 15.06405144 73580","COUNTRY_CODE":"US","EPOCH":"2022-01-30T18:56:23.131968","NORAD_CAT_ID":"46548","SEMIMAJOR_AXIS":"6925.333","MEAN_ELEMENT_THEORY":"SGP4","BSTAR":"0.00013879000000","ELEMENT_SET_NO":"999","ECCENTRICITY":"0.00012360","LAUNCH_DATE":"2020-10-06","MEAN_MOTION_DDOT":"0.0000000000000","CLASSIFICATION_TYPE":"U","REF_FRAME":"TEME","CENTER_NAME":"EARTH","OBJECT_TYPE":"PAYLOAD","MEAN_MOTION":"15.06405144","PERIAPSIS":"546.342","OBJECT_NAME":"STARLINK-1699","FILE":"3287903","PERIOD":"95.592","TLE_LINE1":"1 46548U 20070S   22030.78915662  .00001787  00000-0  13879-3 0  9991","OBJECT_ID":"2020-070S","MEAN_ANOMALY":"280.8823","RCS_SIZE":"LARGE"},{"SITE":"AFETR","GP_ID":"194982045","MEAN_MOTION_DOT":"0.00001973","RA_OF_ASC_NODE":"65.3085","INCLINATION":"53.0532","TIME_SYSTEM":"UTC","EPHEMERIS_TYPE":"0","APOAPSIS":"548.162","ARG_OF_PERICENTER":"73.0244","DECAY_DATE":null,"MEAN_ELEMENT_THEORY":"SGP4","SEMIMAJOR_AXIS":"6925.354","NORAD_CAT_ID":"46549","BSTAR":"0.00015131000000","ELEMENT_SET_NO":"999","ECCENTRICITY":"0.00013620","EPOCH":"2022-01-30T19:38:51.323712","TLE_LINE2":"2 46549  53.0532  65.3085 0001362  73.0244 287.0894 15.06398237 73582","REV_AT_EPOCH":"7358","COUNTRY_CODE":"US","CLASSIFICATION_TYPE":"U","MEAN_MOTION_DDOT":"0.0000000000000","LAUNCH_DATE":"2020-10-06","OBJECT_ID":"2020-070T","MEAN_ANOMALY":"287.0894","RCS_SIZE":"LARGE","TLE_LINE1":"1 46549U 20070T   22030.81864958  .00001973  00000-0  15131-3 0  9997","PERIOD":"95.592","OBJECT_NAME":"STARLINK-1700","FILE":"3287903","PERIAPSIS":"546.276","MEAN_MOTION":"15.06398237","CENTER_NAME":"EARTH","OBJECT_TYPE":"PAYLOAD","REF_FRAME":"TEME"},{"OBJECT_TYPE":"PAYLOAD","CENTER_NAME":"EARTH","REF_FRAME":"TEME","MEAN_MOTION":"15.06403580","PERIAPSIS":"546.026","PERIOD":"95.592","TLE_LINE1":"1 46550U 20070U   22030.80390945  .00003045  00000-0  22323-3 0  9991","FILE":"3287903","OBJECT_NAME":"STARLINK-1701","RCS_SIZE":"LARGE","MEAN_ANOMALY":"301.2406","OBJECT_ID":"2020-070U","LAUNCH_DATE":"2020-10-06","MEAN_MOTION_DDOT":"0.0000000000000","CLASSIFICATION_TYPE":"U","COUNTRY_CODE":"US","TLE_LINE2":"2 46550  53.0542  65.3800 0001699  58.8749 301.2406 15.06403580 73580","REV_AT_EPOCH":"7358","EPOCH":"2022-01-30T19:17:37.776480","ECCENTRICITY":"0.00016990","BSTAR":"0.00022323000000","ELEMENT_SET_NO":"999","SEMIMAJOR_AXIS":"6925.338","MEAN_ELEMENT_THEORY":"SGP4","NORAD_CAT_ID":"46550","APOAPSIS":"548.379","EPHEMERIS_TYPE":"0","ARG_OF_PERICENTER":"58.8749","TIME_SYSTEM":"UTC","DECAY_DATE":null,"INCLINATION":"53.0542","RA_OF_ASC_NODE":"65.3800","MEAN_MOTION_DOT":"0.00003045","SITE":"AFETR","GP_ID":"194982295"},{"RA_OF_ASC_NODE":"50.5565","INCLINATION":"53.0537","DECAY_DATE":null,"TIME_SYSTEM":"UTC","EPHEMERIS_TYPE":"0","APOAPSIS":"548.384","ARG_OF_PERICENTER":"72.9820","GP_ID":"194983047","SITE":"AFETR","MEAN_MOTION_DOT":"0.00001195","REV_AT_EPOCH":"7379","TLE_LINE2":"2 46552  53.0537  50.5565 0001670  72.9820 287.1352 15.06395308 73799","COUNTRY_CODE":"US","SEMIMAJOR_AXIS":"6925.363","NORAD_CAT_ID":"46552","MEAN_ELEMENT_THEORY":"SGP4","BSTAR":"0.00009910700000","ECCENTRICITY":"0.00016700","ELEMENT_SET_NO":"999","EPOCH":"2022-01-30T18:18:35.074080","LAUNCH_DATE":"2020-10-06","CLASSIFICATION_TYPE":"U","MEAN_MOTION_DDOT":"0.0000000000000","MEAN_MOTION":"15.06395308","PERIAPSIS":"546.071","REF_FRAME":"TEME","CENTER_NAME":"EARTH","OBJECT_TYPE":"PAYLOAD","OBJECT_ID":"2020-070W","MEAN_ANOMALY":"287.1352","RCS_SIZE":"LARGE","OBJECT_NAME":"STARLINK-1649","FILE":"3287903","PERIOD":"95.592","TLE_LINE1":"1 46552U 20070W   22030.76290595  .00001195  00000-0  99107-4 0  9997"},{"MEAN_MOTION_DDOT":"0.0000000000000","CLASSIFICATION_TYPE":"U","LAUNCH_DATE":"2020-10-06","OBJECT_NAME":"STARLINK-1664","FILE":"3287903","PERIOD":"95.593","TLE_LINE1":"1 46553U 20070X   22030.72463722  .00001141  00000-0  95508-4 0  9990","OBJECT_ID":"2020-070X","MEAN_ANOMALY":"291.2358","RCS_SIZE":"LARGE","REF_FRAME":"TEME","CENTER_NAME":"EARTH","OBJECT_TYPE":"PAYLOAD","MEAN_MOTION":"15.06393866","PERIAPSIS":"546.180","MEAN_MOTION_DOT":"0.00001141","GP_ID":"194983797","SITE":"AFETR","DECAY_DATE":null,"TIME_SYSTEM":"UTC","APOAPSIS":"548.284","EPHEMERIS_TYPE":"0","ARG_OF_PERICENTER":"68.8793","RA_OF_ASC_NODE":"35.7359","INCLINATION":"53.0543","EPOCH":"2022-01-30T17:23:28.655808","SEMIMAJOR_AXIS":"6925.367","NORAD_CAT_ID":"46553","MEAN_ELEMENT_THEORY":"SGP4","ELEMENT_SET_NO":"999","BSTAR":"0.00009550800000","ECCENTRICITY":"0.00015190","TLE_LINE2":"2 46553  53.0543  35.7359 0001519  68.8793 291.2358 15.06393866 73999","REV_AT_EPOCH":"7399","COUNTRY_CODE":"US"},{"LAUNCH_DATE":"2020-10-06","MEAN_MOTION_DDOT":"0.0000000000000","CLASSIFICATION_TYPE":"U","CENTER_NAME":"EARTH","OBJECT_TYPE":"PAYLOAD","REF_FRAME":"TEME","PERIAPSIS":"546.138","MEAN_MOTION":"15.06411095","PERIOD":"95.591","TLE_LINE1":"1 46554U 20070Y   22030.77764373  .00001667  00000-0  13076-3 0  9994","OBJECT_NAME":"STARLINK-1671","FILE":"3287903","MEAN_ANOMALY":"281.6085","OBJECT_ID":"2020-070Y","RCS_SIZE":"LARGE","TIME_SYSTEM":"UTC","ARG_OF_PERICENTER":"78.5072","APOAPSIS":"548.221","EPHEMERIS_TYPE":"0","DECAY_DATE":null,"RA_OF_ASC_NODE":"50.4935","INCLINATION":"53.0531","MEAN_MOTION_DOT":"0.00001667","SITE":"AFETR","GP_ID":"194982545","TLE_LINE2":"2 46554  53.0531  50.4935 0001504  78.5072 281.6085 15.06411095 73796","REV_AT_EPOCH":"7379","COUNTRY_CODE":"US","EPOCH":"2022-01-30T18:39:48.418272","SEMIMAJOR_AXIS":"6925.315","NORAD_CAT_ID":"46554","MEAN_ELEMENT_THEORY":"SGP4","ECCENTRICITY":"0.00015040","BSTAR":"0.00013076000000","ELEMENT_SET_NO":"999"},{"TLE_LINE1":"1 46556U 20070AA  22030.50537660 -.00018195  00000-0 -12079-2 0  9991","PERIOD":"95.597","FILE":"3287677","OBJECT_NAME":"STARLINK-1676","RCS_SIZE":"LARGE","MEAN_ANOMALY":"292.5226","OBJECT_ID":"2020-070AA","OBJECT_TYPE":"PAYLOAD","CENTER_NAME":"EARTH","REF_FRAME":"TEME","MEAN_MOTION":"15.06330871","PERIAPSIS":"545.623","MEAN_MOTION_DDOT":"0.0000000000000","CLASSIFICATION_TYPE":"U","LAUNCH_DATE":"2020-10-06","EPOCH":"2022-01-30T12:07:44.538240","ECCENTRICITY":"0.00026030","BSTAR":"-0.00120790000000","ELEMENT_SET_NO":"999","NORAD_CAT_ID":"46556","SEMIMAJOR_AXIS":"6925.560","MEAN_ELEMENT_THEORY":"SGP4","COUNTRY_CODE":"US","TLE_LINE2":"2 46556  53.0543  66.7297 0002603  67.6038 292.5226 15.06330871 73547","REV_AT_EPOCH":"7354","MEAN_MOTION_DOT":"-0.00018195","SITE":"AFETR","GP_ID":"194951454","ARG_OF_PERICENTER":"67.6038","APOAPSIS":"549.228","EPHEMERIS_TYPE":"0","TIME_SYSTEM":"UTC","DECAY_DATE":null,"RA_OF_ASC_NODE":"66.7297","INCLINATION":"53.0543"},{"DECAY_DATE":null,"ARG_OF_PERICENTER":"75.9213","APOAPSIS":"548.173","EPHEMERIS_TYPE":"0","TIME_SYSTEM":"UTC","RA_OF_ASC_NODE":"50.6314","INCLINATION":"53.0556","MEAN_MOTION_DOT":"0.00001502","GP_ID":"194983547","SITE":"AFETR","COUNTRY_CODE":"US","REV_AT_EPOCH":"7379","TLE_LINE2":"2 46557  53.0556  50.6314 0001372  75.9213 284.1928 15.06397039 73795","EPOCH":"2022-01-30T17:57:20.828736","BSTAR":"0.00011971000000","ELEMENT_SET_NO":"999","ECCENTRICITY":"0.00013720","NORAD_CAT_ID":"46557","SEMIMAJOR_AXIS":"6925.358","MEAN_ELEMENT_THEORY":"SGP4","LAUNCH_DATE":"2020-10-06","MEAN_MOTION_DDOT":"0.0000000000000","CLASSIFICATION_TYPE":"U","REF_FRAME":"TEME","OBJECT_TYPE":"PAYLOAD","CENTER_NAME":"EARTH","MEAN_MOTION":"15.06397039","PERIAPSIS":"546.272","FILE":"3287903","OBJECT_NAME":"STARLINK-1679","TLE_LINE1":"1 46557U 20070AB  22030.74815774  .00001502  00000-0  11971-3 0  9996","PERIOD":"95.592","RCS_SIZE":"LARGE","OBJECT_ID":"2020-070AB","MEAN_ANOMALY":"284.1928"}];
